NORAD_CAT_ID,OBJECT_NAME,OBJECT_TYPE,EPOCH,MEAN_MOTION,ECCENTRICITY,INCLINATION,RA_OF_ASC_NODE,ARG_OF_PERICENTER,MEAN_ANOMALY,BSTAR,MEAN_MOTION_DOT,MEAN_MOTION_DDOT,TLE_LINE0,TLE_LINE1,TLE_LINE2,SEMIMAJOR_AXIS,PERIOD,APOGEE,PERIGEE,DECAYED
53887.0,STARLINK-5029,PAYLOAD,2022-11-15 04:00:00,15.47986843,0.0001439,53.2177,0.6774,41.4347,321.9296,-0.023562,-0.0114467999999999,0.0,0 STARLINK-5029,1 53887U 22119B   22319.16667824 -.01144680  00000-0 -23562-1 0  9998,2 53887  53.2177   0.6774 0001439  41.4347 321.9296 15.47986843  8489,6800.753000000002,93.024,423.597,421.639,0.0
53887.0,STARLINK-5029,PAYLOAD,2022-11-15 14:00:01,15.46964579,0.0001646,53.2173,358.6951,44.381,121.499,-0.024223,-0.01136271,0.0,0 STARLINK-5029,1 53887U 22119B   22319.58334491 -.01136271  00000-0 -24223-1 0  9997,2 53887  53.2173 358.6951 0001646  44.3810 121.4990 15.46964579  1304,6803.749,93.086,426.734,424.494,0.0
53887.0,STARLINK-5029,PAYLOAD,2022-11-15 22:00:00,15.4615351,0.0001483,53.2175,357.108,50.9094,171.8827,-0.025017,-0.01140463,0.0,0 STARLINK-5029,1 53887U 22119B   22319.91667824 -.01140463  00000-0 -25017-1 0  9993,2 53887  53.2175 357.1080 0001483  50.9094 171.8827 15.46153510  8590,6806.128000000002,93.134,429.002,426.983,0.0
53887.0,STARLINK-5029,PAYLOAD,2022-11-16 14:00:01,15.44526546,0.0001406999999999,53.2172,353.9455,42.7488,290.9961,-0.026462,-0.01140537,0.0,0 STARLINK-5029,1 53887U 22119B   22320.58335648 -.01140537  00000-0 -26462-1 0  9991,2 53887  53.2172 353.9455 0001407  42.7488 290.9961 15.44526546  8693,6810.906999999997,93.232,433.73,431.81300000000016,0.0
53887.0,STARLINK-5029,PAYLOAD,2022-11-16 22:00:08,15.43711714,0.0001369,53.2174,352.3639,43.1174,344.9939,-0.027199,-0.01140141,0.0,0 STARLINK-5029,1 53887U 22119B   22320.91675926 -.01140141  00000-0 -27199-1 0  9993,2 53887  53.2174 352.3639 0001369  43.1174 344.9939 15.43711714  1304,6813.303000000001,93.282,436.101,434.235,0.0
53887.0,STARLINK-5029,PAYLOAD,2022-11-17 04:00:00,15.43104401,0.0001419999999999,53.2175,351.1815,44.8794,292.6219,-0.027862,-0.01143747,0.0,0 STARLINK-5029,1 53887U 22119B   22321.16667824 -.01143747  00000-0 -27862-1 0  9991,2 53887  53.2175 351.1815 0001420  44.8794 292.6219 15.43104401  8791,6815.090999999999,93.318,437.923,435.98800000000006,0.0
53887.0,STARLINK-5029,PAYLOAD,2022-11-17 14:00:01,15.42081917,0.0001635,53.2167,349.2146,43.5497,89.1333,-0.028615,-0.01135562,0.0,0 STARLINK-5029,1 53887U 22119B   22321.58334491 -.01135562  00000-0 -28615-1 0  9991,2 53887  53.2167 349.2146 0001635  43.5497  89.1333 15.42081917  1302,6818.103,93.38,441.083,438.853,0.0
53887.0,STARLINK-5029,PAYLOAD,2022-11-17 20:00:01,15.41474906,0.0001498,53.2175,348.0317,42.7487,38.3098,-0.029354,-0.01140831,0.0,0 STARLINK-5029,1 53887U 22119B   22321.83334491 -.01140831  00000-0 -29354-1 0  9995,2 53887  53.2175 348.0317 0001498  42.7487  38.3098 15.41474906  8893,6819.893,93.417,442.779,440.736,0.0
53887.0,STARLINK-5029,PAYLOAD,2022-11-17 22:00:00,15.41244714,0.0001555,53.2171,347.639,49.8851,133.8544,-0.02848,-0.0110185,0.0,0 STARLINK-5029,1 53887U 22119B   22321.91667824 -.01101850  00000-0 -28480-1 0  9990,2 53887  53.2171 347.6390 0001555  49.8851 133.8544 15.41244714  1300,6820.571999999999,93.431,443.497,441.376,0.0
53887.0,STARLINK-5029,PAYLOAD,2022-11-18 14:00:01,15.39663395,0.0001477,53.2169,344.4998,44.1385,238.7344,-0.031949,-0.01166455,0.0,0 STARLINK-5029,1 53887U 22119B   22322.58334491 -.01166455  00000-0 -31949-1 0  9991,2 53887  53.2169 344.4998 0001477  44.1385 238.7344 15.39663395  9004,6825.241,93.527,448.114,446.098,0.0
53887.0,STARLINK-5029,PAYLOAD,2022-11-18 22:00:00,15.38825774,0.0001438,53.2172,342.9306,38.5634,292.4331,-0.031838,-0.01133688,0.0,0 STARLINK-5029,1 53887U 22119B   22322.91667824 -.01133688  00000-0 -31838-1 0  9996,2 53887  53.2172 342.9306 0001438  38.5634 292.4331 15.38825774  1303,6827.717,93.578,450.564,448.601,0.0
53887.0,STARLINK-5029,PAYLOAD,2022-11-19 14:00:01,15.37219407,0.000165,53.2167,339.8027,35.683,28.5903,-0.034442,-0.01160963,0.0,0 STARLINK-5029,1 53887U 22119B   22323.58334491 -.01160963  00000-0 -34442-1 0  9991,2 53887  53.2167 339.8027 0001650  35.6830  28.5903 15.37219407  1306,6832.473000000001,93.676,455.466,453.211,0.0
53887.0,STARLINK-5029,PAYLOAD,2022-11-19 20:00:01,15.36592139,0.0001463,53.2176,338.6284,39.9962,328.2627,-0.034443,-0.01139497,0.0,0 STARLINK-5029,1 53887U 22119B   22323.83334491 -.01139497  00000-0 -34443-1 0  9998,2 53887  53.2176 338.6284 0001463  39.9962 328.2627 15.36592139  9208,6834.331999999999,93.714,457.197,455.198,0.0
53887.0,STARLINK-5029,PAYLOAD,2022-11-19 22:00:00,15.36414354,0.0001702,53.2172,338.2392,40.8578,68.5904,-0.035799,-0.01174246,0.0,0 STARLINK-5029,1 53887U 22119B   22323.91667824 -.01174246  00000-0 -35799-1 0  9992,2 53887  53.2172 338.2392 0001702  40.8578  68.5904 15.36414354  1307,6834.86,93.725,457.888,455.561,0.0
53887.0,STARLINK-5029,PAYLOAD,2022-11-20 14:00:01,15.34783845,0.000173,53.2165,335.1228,47.2589,149.6112,-0.037547,-0.01168975,0.0,0 STARLINK-5029,1 53887U 22119B   22324.58334491 -.01168975  00000-0 -37547-1 0  9992,2 53887  53.2165 335.1228 0001730  47.2589 149.6112 15.34783845  9310,6839.7,93.824,462.74800000000016,460.381,0.0
53887.0,STARLINK-5029,PAYLOAD,2022-11-20 22:00:00,15.33946661,0.0001522,53.2174,333.5637,51.9591,187.1686,-0.037436,-0.01137596,0.0,0 STARLINK-5029,1 53887U 22119B   22324.91667824 -.01137596  00000-0 -37436-1 0  9990,2 53887  53.2174 333.5637 0001522  51.9591 187.1686 15.33946661  1300,6842.188,93.875,465.094,463.012,0.0
53887.0,STARLINK-5029,PAYLOAD,2022-11-21 14:00:01,15.32328774,0.0001625,53.2163,330.4601,39.1564,281.5191,-0.039886,-0.01150172,0.0,0 STARLINK-5029,1 53887U 22119B   22325.58334491 -.01150172  00000-0 -39886-1 0  9991,2 53887  53.2163 330.4601 0001625  39.1564 281.5191 15.32328774  1305,6847.003000000002,93.975,469.981,467.756,0.0
53887.0,STARLINK-5029,PAYLOAD,2022-11-21 22:00:00,15.31514278,0.0001530999999999,53.2167,328.9084,38.6157,321.3715,-0.040877,-0.01148968,0.0,0 STARLINK-5029,1 53887U 22119B   22325.91667824 -.01148968  00000-0 -40877-1 0  9999,2 53887  53.2167 328.9084 0001531  38.6157 321.3715 15.31514278  9526,6849.431,94.025,472.344,470.247,0.0
53887.0,STARLINK-5029,PAYLOAD,2022-11-22 14:00:01,15.29782554,0.0001652,53.2161,325.8147,46.8359,28.9537,-0.037389,-0.01007381,0.0,0 STARLINK-5029,1 53887U 22119B   22326.58335648 -.01007381  00000-0 -37389-1 0  9996,2 53887  53.2161 325.8147 0001652  46.8359  28.9537 15.29782554  1306,6854.599,94.131,477.596,475.331,0.0
53887.0,STARLINK-5029,PAYLOAD,2022-11-22 20:00:01,15.29228975,0.0001298,53.2166,324.655,45.2747,327.7945,-0.041003,-0.01079383,0.0,0 STARLINK-5029,1 53887U 22119B   22326.83334491 -.01079383  00000-0 -41003-1 0  9998,2 53887  53.2166 324.6550 0001298  45.2747 327.7945 15.29228975  9668,6856.253000000002,94.165,479.008,477.228,0.0
53887.0,STARLINK-5029,PAYLOAD,2022-11-22 22:00:00,15.29078644,0.0001523,53.2166,324.2689,45.8968,66.1513,-0.044368,-0.01155238,0.0,0 STARLINK-5029,1 53887U 22119B   22326.91667824 -.01155238  00000-0 -44368-1 0  9997,2 53887  53.2166 324.2689 0001523  45.8968  66.1513 15.29078644  1303,6856.7019999999975,94.174,479.612,477.523,0.0
53887.0,STARLINK-5029,PAYLOAD,2022-11-23 04:00:00,15.28525144,0.0001317,53.2169,323.1125,52.3994,356.2584,-0.048222,-0.01244359,0.0,0 STARLINK-5029,1 53887U 22119B   22327.16667824 -.01244359  00000-0 -48222-1 0  9991,2 53887  53.2169 323.1125 0001317  52.3994 356.2584 15.28525144  9717,6858.357,94.208,481.126,479.319,0.0
53887.0,STARLINK-5029,PAYLOAD,2022-11-23 14:00:01,15.27444225,0.0001784,53.2161,321.1867,48.9766,132.8951,-0.04625,-0.0114606,0.0,0 STARLINK-5029,1 53887U 22119B   22327.58334491 -.01146060  00000-0 -46250-1 0  9997,2 53887  53.2161 321.1867 0001784  48.9766 132.8951 15.27444225  9777,6861.593000000003,94.275,484.682,482.234,0.0
53887.0,STARLINK-5029,PAYLOAD,2022-11-23 22:00:00,15.26643809,0.000166,53.2164,319.6465,41.3941,173.9152,-0.048242,-0.01180528,0.0,0 STARLINK-5029,1 53887U 22119B   22327.91667824 -.01180528  00000-0 -48242-1 0  9993,2 53887  53.2164 319.6465 0001660  41.3941 173.9152 15.26643809  1309,6863.991,94.325,486.995,484.716,0.0
53887.0,STARLINK-5029,PAYLOAD,2022-11-24 14:00:01,15.25023178,0.0001607,53.2162,316.5758,47.0403,232.2188,-0.05115,-0.01190776,0.0,0 STARLINK-5029,1 53887U 22119B   22328.58334491 -.01190776  00000-0 -51150-1 0  9996,2 53887  53.2162 316.5758 0001607  47.0403 232.2188 15.25023178  1303,6868.853,94.425,491.822,489.614,0.0
53887.0,STARLINK-5029,PAYLOAD,2022-11-24 22:00:00,15.24186165,0.000162,53.2166,315.0414,39.6677,270.1122,-0.050826,-0.0115661,0.0,0 STARLINK-5029,1 53887U 22119B   22328.91667824 -.01156610  00000-0 -50826-1 0  9990,2 53887  53.2166 315.0414 0001620  39.6677 270.1122 15.24186165  1309,6871.3669999999975,94.477,494.345,492.119,0.0
53887.0,STARLINK-5029,PAYLOAD,2022-11-25 14:00:01,15.22577666,0.0001754999999999,53.2162,311.9821,34.6615,333.1948,-0.054666,-0.01183374,0.0,0 STARLINK-5029,1 53887U 22119B   22329.58334491 -.01183374  00000-0 -54666-1 0  9998,2 53887  53.2162 311.9821 0001755  34.6615 333.1948 15.22577666  1302,6876.206,94.576,499.278,496.864,0.0
53887.0,STARLINK-5029,PAYLOAD,2022-11-25 22:00:00,15.2175247,0.0001716,53.2166,310.4535,36.7567,358.6821,-0.055179,-0.0116695,0.0,0 STARLINK-5029,1 53887U 22119B   22329.91667824 -.01166950  00000-0 -55179-1 0  9995,2 53887  53.2166 310.4535 0001716  36.7567 358.6821 15.21752470  1307,6878.691,94.628,501.737,499.376,0.0
53887.0,STARLINK-5029,PAYLOAD,2022-11-26 14:00:01,15.20115629,0.0001761,53.2167,307.4054,41.9863,45.676,-0.05725,-0.01154771,0.0,0 STARLINK-5029,1 53887U 22119B   22330.58334491 -.01154771  00000-0 -57250-1 0  9991,2 53887  53.2167 307.4054 0001761  41.9863  45.6760 15.20115629  1300,6883.629,94.73,506.706,504.281,0.0
